STARLINK-35139          
1 66380U 25257A   25333.83335647 -.00471880  00000+0 -89447-2 0  9992
2 66380  53.1593 325.5653 0001575  82.2626  95.1108 15.49478331  4366
STARLINK-35158          
1 66381U 25257B   25333.83335647 -.00470040  00000+0 -89084-2 0  9997
2 66381  53.1592 325.5613 0001784  79.4186  99.8699 15.49475018  4425
STARLINK-35639          
1 66382U 25257C   25333.83335647  .00101549  00000+0  18150-2 0  9997
2 66382  53.1592 325.5558 0001446  86.7058  94.5681 15.49234954  4423
STARLINK-35690          
1 66383U 25257D   25333.83335647 -.00030274  00000+0 -53833-3 0  9994
2 66383  53.1594 325.5481 0001476  83.7587 101.3238 15.49309717  4423
STARLINK-35662          
1 66384U 25257E   25333.83335647  .00101079  00000+0  18066-2 0  9993
2 66384  53.1594 325.5451 0001578  80.9648 106.0577 15.49236088  4429
STARLINK-35659          
1 66385U 25257F   25333.83335647 -.00032328  00000+0 -57556-3 0  9994
2 66385  53.1593 325.5527 0001495  81.1015 102.0652 15.49309754  4423
STARLINK-35651          
1 66386U 25257G   25333.83335647  .00103515  00000+0  18495-2 0  9998
2 66386  53.1594 325.5408 0001419  86.4137 102.5262 15.49234563  4429
STARLINK-35661          
1 66387U 25257H   25333.83335647  .00122155  00000+0  21752-2 0  9990
2 66387  53.1592 325.5375 0000949  75.5435 115.2653 15.49243899  4425
STARLINK-35647          
1 66388U 25257J   25333.83335647  .00125062  00000+0  22260-2 0  9996
2 66388  53.1593 325.5334 0001002  72.3439 120.3891 15.49243248  4421
STARLINK-35694          
1 66389U 25257K   25333.83335647  .00104370  00000+0  18644-2 0  9997
2 66389  53.1595 325.5281 0001509  79.7867 114.9001 15.49236279  4421
STARLINK-35665          
1 66390U 25257L   25333.83335647  .00101720  00000+0  18179-2 0  9998
2 66390  53.1595 325.4569 0001655  76.7526 152.4419 15.49235538  4520
STARLINK-35656          
1 66391U 25257M   25333.83335647 -.01900120  00000+0 -42466-1 0  9998
2 66391  53.1594 325.2326 0001029  95.1700 241.3735 15.46161236  4522
